LEMUR-2-HUBBLE-4        
1 64565U 25135AP  26193.26061449  .00001116  00000+0  11088-3 0  9994
2 64565  97.7716 306.8753 0002440 170.3654 189.7613 14.93680043 57615
LEMUR-2-SEJONG-2        
1 64586U 25135BL  26193.57444091  .00002064  00000+0  18494-3 0  9990
2 64586  97.7704 308.4268 0003782 231.1965 128.8919 14.96899533 57741
LEMUR-2-HUBBLE-5        
1 64840U 25135BT  26193.27048713  .00001131  00000+0  11093-3 0  9993
2 64840  97.7737 307.5509 0004192 247.2369 112.8409 14.94208283 57651
LEMUR-2-KARENDARRELL    
1 64841U 25135BU  26193.39562381  .00004338  00000+0  34880-3 0  9990
2 64841  97.7707 309.5687 0012127 112.8315 247.4190 15.00474670 57793
LEMUR-2-LUCILLE-ROSE    
1 65403U 25135BV  26192.83555560  .00003816  00000+0  30738-3 0  9992
2 65403  97.7712 309.0456 0014466 199.4062 160.6612 15.00464612 52336
LEMUR-2-AFFIE-WAUWIE    
1 66295U 25248C   26193.42777828  .00012562  00000+0  45878-3 0  9995
2 66295  45.3911 338.1335 0008725 238.0839 121.9202 15.28172277 38453
OTTER SDM               
1 66678U 25276N   26193.20084489  .00003731  00000+0  17619-3 0  9991
2 66678  97.4210 266.2646 0004240 268.1515  91.9235 15.20034932 34216
LEMUR-2-STAS-GORBUK     
1 66686U 25276W   26192.76056604  .00003406  00000+0  16302-3 0  9995
2 66686  97.4242 265.8836 0003449 265.6939  94.3901 15.19636638 34146
LEMUR-2-TEODOR          
1 66768U 25276DG  26193.44087409  .00003151  00000+0  14389-3 0  9999
2 66768  97.4147 266.8209 0002274  90.2746 269.8751 15.21318646 34285
LEMUR-2-LAILA           
1 66776U 25276DQ  26193.14802543  .00003711  00000+0  16782-3 0  9990
2 66776  97.4171 266.6695 0002912  98.7962 261.3604 15.21543038 34245
LEMUR-2-CELIJO-SB-PK    
1 66781U 25276DW  26193.45033895  .00003243  00000+0  26342-3 0  9999
2 66781  97.5201 263.3941 0007162  70.8550 289.3449 15.00268971 26414
LEMUR-2-FINNIAN         
1 66782U 25276DX  26193.02114277  .00001766  00000+0  14434-3 0  9994
2 66782  97.5365 263.2359 0007652  11.2352 348.9042 15.00597128 23722
LEMUR-2-STARLIGHT       
1 66783U 25276DY  26193.13254089  .00003887  00000+0  32198-3 0  9996
2 66783  97.5233 262.9182 0014819  56.3195 303.9440 14.99331400 33938
LEMUR-2-TARTIFLETTE     
1 66784U 25276DZ  26193.13091190  .00003551  00000+0  29474-3 0  9990
2 66784  97.5237 262.9245 0013851  64.3329 295.9324 14.99317762 33932
LEMUR-2-VUKASIN         
1 66785U 25276EA  26193.43716030  .00002702  00000+0  21885-3 0  9996
2 66785  97.5237 263.5744 0003470  63.1538 297.0041 15.00531099 33932
LEMUR-2-HOTSPUR-TOM     
1 66786U 25276EB  26192.72465754  .00003174  00000+0  26466-3 0  9996
2 66786  97.5223 262.5077 0013834  56.6609 303.5937 14.99219626 33806
